NORAD_CAT_ID,OBJECT_NAME,OBJECT_TYPE,EPOCH,MEAN_MOTION,ECCENTRICITY,INCLINATION,RA_OF_ASC_NODE,ARG_OF_PERICENTER,MEAN_ANOMALY,BSTAR,MEAN_MOTION_DOT,MEAN_MOTION_DDOT,TLE_LINE0,TLE_LINE1,TLE_LINE2,SEMIMAJOR_AXIS,PERIOD,APOGEE,PERIGEE,DECAYED
53010.0,STARLINK-4263,PAYLOAD,2022-08-04 14:00:01,15.73182738,0.0002604,53.2184,240.833,14.9385,292.1611,0.00034776,0.00048436,0.0,0 STARLINK-4263,1 53010U 22076AA  22216.58334491  .00048436  00000-0  34776-3 0  9991,2 53010  53.2184 240.8330 0002604  14.9385 292.1611 15.73182738  4917,6727.944,91.534,351.561,348.057,0.0
53010.0,STARLINK-4263,PAYLOAD,2022-08-04 22:00:00,15.73192716,0.0002355999999999,53.2185,239.1816,19.3712,16.6625,-0.0001658,-0.0002381999999999,0.0,0 STARLINK-4263,1 53010U 22076AA  22216.91667824 -.00023820  00000-0 -16580-3 0  9992,2 53010  53.2185 239.1816 0002356  19.3712  16.6625 15.73192716  4961,6727.916,91.534,351.366,348.196,0.0
53010.0,STARLINK-4263,PAYLOAD,2022-08-05 14:00:01,15.73120112,0.0002798,53.2182,235.8854,26.3802,187.3374,0.00028269,0.00039107,0.0,0 STARLINK-4263,1 53010U 22076AA  22217.58335648  .00039107  00000-0  28269-3 0  9992,2 53010  53.2182 235.8854 0002798  26.3802 187.3374 15.73120112  1304,6728.123000000001,91.538,351.87,348.105,0.0
53010.0,STARLINK-4263,PAYLOAD,2022-08-05 22:00:00,15.73086441,0.0002575,53.2186,234.2341,28.3382,274.1789,0.0013580999999999,0.00193502,0.0,0 STARLINK-4263,1 53010U 22076AA  22217.91667824  .00193502  00000-0  13581-2 0  9993,2 53010  53.2186 234.2341 0002575  28.3382 274.1789 15.73086441  1301,6728.219,91.54,351.816,348.351,0.0
53010.0,STARLINK-4263,PAYLOAD,2022-08-06 14:00:01,15.73284805,0.0002757,53.2185,230.9372,22.4954,97.8802,8.1538e-05,0.00010878,0.0,0 STARLINK-4263,1 53010U 22076AA  22218.58334491  .00010878  00000-0  81538-4 0  9991,2 53010  53.2185 230.9372 0002757  22.4954  97.8802 15.73284805  1309,6727.653,91.528,351.37300000000016,347.664,0.0
53010.0,STARLINK-4263,PAYLOAD,2022-08-06 22:00:00,15.73263922,0.0002449,53.2184,229.2858,21.9538,187.4723,3.5784e-05,4.417e-05,0.0,0 STARLINK-4263,1 53010U 22076AA  22218.91667824  .00004417  00000-0  35784-4 0  9991,2 53010  53.2184 229.2858 0002449  21.9538 187.4723 15.73263922  1303,6727.7130000000025,91.529,351.226,347.93,0.0
53010.0,STARLINK-4263,PAYLOAD,2022-08-07 14:00:01,15.73238011,0.0002626,53.2179,225.9888,13.1567,14.2566,-0.00011421,-0.00016648,0.0,0 STARLINK-4263,1 53010U 22076AA  22219.58334491 -.00016648  00000-0 -11421-3 0  9998,2 53010  53.2179 225.9888 0002626  13.1567  14.2566 15.73238011  5380,6727.7869999999975,91.531,351.4190000000001,347.885,0.0
53010.0,STARLINK-4263,PAYLOAD,2022-08-07 22:00:00,15.73196433,0.0002302,53.2182,224.3373,13.0252,103.3826,0.00026063,0.00036111,0.0,0 STARLINK-4263,1 53010U 22076AA  22219.91667824  .00036111  00000-0  26063-3 0  9997,2 53010  53.2182 224.3373 0002302  13.0252 103.3826 15.73196433  1305,6727.905,91.533,351.319,348.222,0.0
53010.0,STARLINK-4263,PAYLOAD,2022-08-08 14:00:01,15.73317891,0.0002592,53.2179,221.04,13.9438,280.4778,-0.00065741,-0.00092361,0.0,0 STARLINK-4263,1 53010U 22076AA  22220.58335648 -.00092361  00000-0 -65741-3 0  9995,2 53010  53.2179 221.0400 0002592  13.9438 280.4778 15.73317891  1308,6727.559,91.526,351.168,347.68,0.0
53010.0,STARLINK-4263,PAYLOAD,2022-08-08 17:19:40,15.73283468,0.0002519,53.2189,220.3541,15.6023,344.5075,0.00030748,0.00042911,0.0,0 STARLINK-4263,1 53010U 22076AA  22220.72199579  .00042911  00000-0  30748-3 0  9995,2 53010  53.2189 220.3541 0002519  15.6023 344.5075 15.73283468  5561,6727.656999999997,91.528,351.217,347.82800000000015,0.0
53010.0,STARLINK-4263,PAYLOAD,2022-08-08 22:00:00,15.73232123,0.0002366,53.2178,219.3888,18.0486,5.3491,-1.1909e-05,-2.295e-05,0.0,0 STARLINK-4263,1 53010U 22076AA  22220.91667824 -.00002295  00000-0 -11909-4 0  9991,2 53010  53.2178 219.3888 0002366  18.0486   5.3491 15.73232123  1305,6727.804,91.531,351.26,348.077,0.0
53010.0,STARLINK-4263,PAYLOAD,2022-08-09 06:00:00,15.73222065,0.0002573,53.2175,217.7413,16.9517,95.3964,-0.00080741,-0.00112562,0.0,0 STARLINK-4263,1 53010U 22076AA  22221.25001157 -.00112562  00000-0 -80741-3 0  9998,2 53010  53.2175 217.7413 0002573  16.9517  95.3964 15.73222065  5649,6727.831999999999,91.532,351.42800000000005,347.966,0.0
53010.0,STARLINK-4263,PAYLOAD,2022-08-09 14:00:01,15.73171883,0.0002588,53.2173,216.0917,16.8476,184.3897,-0.00038579,-0.00054361,0.0,0 STARLINK-4263,1 53010U 22076AA  22221.58334491 -.00054361  00000-0 -38579-3 0  9998,2 53010  53.2173 216.0917 0002588  16.8476 184.3897 15.73171883  1301,6727.975,91.535,351.582,348.099,0.0
53010.0,STARLINK-4263,PAYLOAD,2022-08-09 22:00:00,15.73089359,0.0002456,53.2176,214.4407,23.1565,266.9518,0.00050591,0.00070649,0.0,0 STARLINK-4263,1 53010U 22076AA  22221.91667824  .00070649  00000-0  50591-3 0  9997,2 53010  53.2176 214.4407 0002456  23.1565 266.9518 15.73089359  5750,6728.2109999999975,91.54,351.728,348.423,0.0
53010.0,STARLINK-4263,PAYLOAD,2022-08-10 14:00:01,15.73184857,0.000271,53.2176,211.1436,22.8267,84.9832,8.447200000000001e-05,0.00011243,0.0,0 STARLINK-4263,1 53010U 22076AA  22222.58334491  .00011243  00000-0  84472-4 0  9993,2 53010  53.2176 211.1436 0002710  22.8267  84.9832 15.73184857  1307,6727.938,91.534,351.62699999999984,347.98,0.0
53010.0,STARLINK-4263,PAYLOAD,2022-08-10 20:00:01,15.73174368,0.000248,53.2175,209.9017,25.0004,59.5185,0.00065405,0.00092089,0.0,0 STARLINK-4263,1 53010U 22076AA  22222.83334491  .00092089  00000-0  65405-3 0  9992,2 53010  53.2175 209.9017 0002480  25.0004  59.5185 15.73174368  5897,6727.968000000003,91.535,351.50199999999984,348.165,0.0
53010.0,STARLINK-4263,PAYLOAD,2022-08-10 22:00:00,15.73193775,0.0002476,53.2174,209.4878,26.4417,170.304,0.00057543,0.00080904,0.0,0 STARLINK-4263,1 53010U 22076AA  22222.91667824  .00080904  00000-0  57543-3 0  9997,2 53010  53.2174 209.4878 0002476  26.4417 170.3040 15.73193775  1301,6727.913000000001,91.534,351.444,348.112,0.0
53010.0,STARLINK-4263,PAYLOAD,2022-08-11 06:00:02,15.73263172,0.0002658,53.2174,207.8453,23.2294,262.5211,-0.00048652,-0.00068546,0.0,0 STARLINK-4263,1 53010U 22076AA  22223.25002315 -.00068546  00000-0 -48652-3 0  9994,2 53010  53.2174 207.8453 0002658  23.2294 262.5211 15.73263172  5961,6727.715,91.53,351.36800000000005,347.792,0.0
53010.0,STARLINK-4263,PAYLOAD,2022-08-11 14:00:01,15.73219051,0.000258,53.2173,206.1952,21.0146,353.6519,9.914e-05,0.00013327,0.0,0 STARLINK-4263,1 53010U 22076AA  22223.58334491  .00013327  00000-0  99140-4 0  9997,2 53010  53.2173 206.1952 0002580  21.0146 353.6519 15.73219051  1306,6727.840999999999,91.532,351.44199999999995,347.97,0.0
53010.0,STARLINK-4263,PAYLOAD,2022-08-11 22:00:00,15.73252701,0.0002451,53.2178,204.5442,26.4658,77.1535,-0.00027447,-0.00039056,0.0,0 STARLINK-4263,1 53010U 22076AA  22223.91667824 -.00039056  00000-0 -27447-3 0  9992,2 53010  53.2178 204.5442 0002451  26.4658  77.1535 15.73252701  6064,6727.745,91.53,351.259,347.961,0.0
53010.0,STARLINK-4263,PAYLOAD,2022-08-12 14:00:01,15.73224003,0.0002571,53.218,201.2464,23.1833,258.367,-6.7247e-05,-0.0001006,0.0,0 STARLINK-4263,1 53010U 22076AA  22224.58334491 -.00010060  00000-0 -67247-4 0  9994,2 53010  53.2180 201.2464 0002571  23.1833 258.3670 15.73224003  6176,6727.8269999999975,91.532,351.421,347.962,0.0
53010.0,STARLINK-4263,PAYLOAD,2022-08-12 22:00:01,15.73212798,0.0002323999999999,53.2183,199.5948,23.2921,347.2617,-0.00021139,-0.00030202,0.0,0 STARLINK-4263,1 53010U 22076AA  22224.91668981 -.00030202  00000-0 -21139-3 0  9994,2 53010  53.2183 199.5948 0002324  23.2921 347.2617 15.73212798  1307,6727.859,91.532,351.287,348.16,0.0
53010.0,STARLINK-4263,PAYLOAD,2022-08-13 06:00:02,15.73352638,0.0002695,53.2175,197.9422,18.0153,81.4269,-0.0037501999999999,-0.00500284,0.0,0 STARLINK-4263,1 53010U 22076AA  22225.25002315 -.00500284  00000-0 -37502-2 0  9997,2 53010  53.2175 197.9422 0002695  18.0153  81.4269 15.73352638  6276,6727.46,91.524,351.13800000000015,347.51199999999994,0.0
53010.0,STARLINK-4263,PAYLOAD,2022-08-13 14:00:01,15.73082829,0.0002411999999999,53.2172,196.2871,22.8153,165.4444,-0.0049781999999999,-0.0064512,0.0,0 STARLINK-4263,1 53010U 22076AA  22225.58334491 -.00645120  00000-0 -49782-2 0  9998,2 53010  53.2172 196.2871 0002412  22.8153 165.4444 15.73082829  1302,6728.229,91.54,351.717,348.471,0.0
53010.0,STARLINK-4263,PAYLOAD,2022-08-13 22:00:00,15.72622244,0.0002168,53.2174,194.6366,20.2741,256.5149,-0.0085498,-0.01053726,0.0,0 STARLINK-4263,1 53010U 22076AA  22225.91667824 -.01053726  00000-0 -85498-2 0  9994,2 53010  53.2174 194.6366 0002168  20.2741 256.5149 15.72622244  1302,6729.543000000002,91.567,352.867,349.949,0.0
53010.0,STARLINK-4263,PAYLOAD,2022-08-14 14:00:01,15.71103049,0.0001999,53.2175,191.3509,23.7467,67.6628,-0.0091221,-0.01053576,0.0,0 STARLINK-4263,1 53010U 22076AA  22226.58334491 -.01053576  00000-0 -91221-2 0  9993,2 53010  53.2175 191.3509 0001999  23.7467  67.6628 15.71103049  6483,6733.88,91.655,357.091,354.399,0.0
53010.0,STARLINK-4263,PAYLOAD,2022-08-14 22:00:00,15.70342591,0.0001969,53.2178,189.7096,29.1668,148.1842,-0.0093901,-0.01050549,0.0,0 STARLINK-4263,1 53010U 22076AA  22226.91667824 -.01050549  00000-0 -93901-2 0  9993,2 53010  53.2178 189.7096 0001969  29.1668 148.1842 15.70342591  1303,6736.054,91.7,359.245,356.593,0.0
53010.0,STARLINK-4263,PAYLOAD,2022-08-15 14:00:01,15.68824373,0.0001355,53.2174,186.4348,26.4149,320.0805,-0.010028,-0.01052407,0.0,0 STARLINK-4263,1 53010U 22076AA  22227.58334491 -.01052407  00000-0 -10028-1 0  9991,2 53010  53.2174 186.4348 0001355  26.4149 320.0805 15.68824373  1306,6740.399,91.788,363.17800000000005,361.351,0.0
53010.0,STARLINK-4263,PAYLOAD,2022-08-15 16:00:00,15.68631981,0.0001483,53.2175,186.0255,36.4535,60.9295,-0.0100629999999999,-0.010482,0.0,0 STARLINK-4263,1 53010U 22076AA  22227.66667824 -.01048200  00000-0 -10063-1 0  9994,2 53010  53.2175 186.0255 0001483  36.4535  60.9295 15.68631981  6659,6740.95,91.8,363.815,361.816,0.0
